[{"OBJECT_NAME":"STARLINK-35574","OBJECT_ID":"2025-236AB","EPOCH":"2026-03-09T12:25:21.750240","MEAN_MOTION":15.30208034,"ECCENTRICITY":0.00011674,"INCLINATION":53.1578,"RA_OF_ASC_NODE":104.9965,"ARG_OF_PERICENTER":78.1914,"MEAN_ANOMALY":281.9218,"EPHEMERIS_TYPE":0,"CLASSIFICATION_TYPE":"U","NORAD_CAT_ID":66111,"ELEMENT_SET_NO":999,"REV_AT_EPOCH":2285,"BSTAR":0.00081424601,"MEAN_MOTION_DOT":0.0002384,"MEAN_MOTION_DDOT":0},{"OBJECT_NAME":"SPACEMOBILE-005 DEB","OBJECT_ID":"2024-163K","EPOCH":"2026-03-09T07:33:15.902496","MEAN_MOTION":15.31481997,"ECCENTRICITY":0.00072885,"INCLINATION":52.9762,"RA_OF_ASC_NODE":31.7924,"ARG_OF_PERICENTER":175.8731,"MEAN_ANOMALY":184.2329,"EPHEMERIS_TYPE":0,"CLASSIFICATION_TYPE":"U","NORAD_CAT_ID":62373,"ELEMENT_SET_NO":999,"REV_AT_EPOCH":8280,"BSTAR":0.00063853778,"MEAN_MOTION_DOT":0.00019381,"MEAN_MOTION_DDOT":0}]
